ONEWEB-0656             
1 55817U 23029X   25155.10194800  .00000082  00000+0  16877-3 0  9994
2 55817  87.9263 349.7175 0001919  74.3983 285.7362 13.20770622111920
ONEWEB-0657             
1 55818U 23029Y   25155.35371478  .00000098  00000+0  21321-3 0  9997
2 55818  87.9233  20.1022 0002612  78.5192 281.6233 13.19726210109750
ONEWEB-0658             
1 55819U 23029Z   25155.12152943  .00000105  00000+0  22947-3 0  9991
2 55819  87.9231  20.0819 0001998  99.5109 260.6249 13.19726354109730
ONEWEB-0660             
1 55820U 23029AA  25155.50633387  .00000097  00000+0  22836-3 0  9998
2 55820  87.9045   4.8200 0001514  94.0440 266.0862 13.14503365110497
ONEWEB-0661             
1 55821U 23029AB  25155.54120083 -.00000100  00000+0 -30436-3 0  9999
2 55821  87.9043   4.8837 0001439  91.0460 269.0834 13.14506003110468
ONEWEB-0662             
1 55822U 23029AC  25155.27163451  .00000194  00000+0  48758-3 0  9993
2 55822  87.9045   4.9443 0001563  96.5361 263.5947 13.14502976110495
ONEWEB-0663             
1 55823U 23029AD  25155.08368250  .00000081  00000+0  16763-3 0  9993
2 55823  87.9264 349.7764 0001659 103.0016 257.1302 13.20838592111917
ONEWEB-0664             
1 55824U 23029AE  25155.54386460  .00000031  00000+0  45118-4 0  9990
2 55824  87.9264 349.7061 0001491  81.3527 278.7775 13.20772604111988
